NORAD_CAT_ID,OBJECT_NAME,OBJECT_TYPE,EPOCH,MEAN_MOTION,ECCENTRICITY,INCLINATION,RA_OF_ASC_NODE,ARG_OF_PERICENTER,MEAN_ANOMALY,BSTAR,MEAN_MOTION_DOT,MEAN_MOTION_DDOT,TLE_LINE0,TLE_LINE1,TLE_LINE2,SEMIMAJOR_AXIS,PERIOD,APOGEE,PERIGEE,DECAYED
53627.0,STARLINK-4595,PAYLOAD,2024-01-25 12:09:36,15.08846498,0.0001309,53.2165,109.282,99.9589,260.1551,2.1828e-05,6e-07,0.0,0 STARLINK-4595,1 53627U 22104AR  24025.50667156  .00000060  00000-0  21828-4 0  9992,2 53627  53.2165 109.2820 0001309  99.9589 260.1551 15.08846498 78199,6917.861,95.437,540.631,538.82,0.0
53627.0,STARLINK-4595,PAYLOAD,2024-01-26 10:25:00,15.08841973,0.0001337,53.2167,105.1193,85.5761,274.5384,8.043e-05,9.92e-06,0.0,0 STARLINK-4595,1 53627U 22104AR  24026.43403474  .00000992  00000-0  80430-4 0  9994,2 53627  53.2167 105.1193 0001337  85.5761 274.5384 15.08841973 78335,6917.874,95.437,540.664,538.814,0.0
53627.0,STARLINK-4595,PAYLOAD,2024-01-27 10:15:47,15.08843004,0.0001327,53.2166,100.659,84.6489,275.4654,7.215e-06,-1.73e-06,0.0,0 STARLINK-4595,1 53627U 22104AR  24027.42763748 -.00000173  00000-0  72150-5 0  9990,2 53627  53.2166 100.6590 0001327  84.6489 275.4654 15.08843004 79171,6917.871,95.437,540.654,538.818,0.0
53627.0,STARLINK-4595,PAYLOAD,2024-01-28 05:20:26,15.08833969,0.0001511,53.2172,97.0904,92.5655,267.551,1.5888e-05,-3.5e-07,0.0,0 STARLINK-4595,1 53627U 22104AR  24028.22252349 -.00000035  00000-0  15888-4 0  9990,2 53627  53.2172  97.0904 0001511  92.5655 267.5510 15.08833969 78603,6917.899,95.438,540.809,538.719,0.0
53627.0,STARLINK-4595,PAYLOAD,2024-01-28 10:06:35,15.08832666,0.0001472,53.2172,96.1982,86.0438,274.0723,1.2105e-06,-2.69e-06,0.0,0 STARLINK-4595,1 53627U 22104AR  24028.42124597 -.00000269  00000-0  12105-5 0  9994,2 53627  53.2172  96.1982 0001472  86.0438 274.0723 15.08832666 79324,6917.903,95.438,540.786,538.749,0.0
53627.0,STARLINK-4595,PAYLOAD,2024-01-29 11:32:45,15.08825888,0.0001573,53.2171,91.4394,81.575,278.542,0.00041734,6.358e-05,0.0,0 STARLINK-4595,1 53627U 22104AR  24029.48107946  .00006358  00000-0  41734-3 0  9992,2 53627  53.2171  91.4394 0001573  81.5750 278.5420 15.08825888 78798,6917.924,95.438,540.877,538.7,0.0
53627.0,STARLINK-4595,PAYLOAD,2024-01-29 13:08:07,15.08846886,0.0001517,53.217,91.1408,77.9454,282.1708,0.0001606,2.269e-05,0.0,0 STARLINK-4595,1 53627U 22104AR  24029.54731421  .00002269  00000-0  16060-3 0  9991,2 53627  53.2170  91.1408 0001517  77.9454 282.1708 15.08846886 78801,6917.859,95.437,540.774,538.675,0.0
53627.0,STARLINK-4595,PAYLOAD,2024-01-30 11:23:32,15.08836248,0.000174,53.2186,86.9771,77.3125,282.8062,9.4629e-05,1.218e-05,0.0,0 STARLINK-4595,1 53627U 22104AR  24030.47468506  .00001218  00000-0  94629-4 0  9997,2 53627  53.2186  86.9771 0001740  77.3125 282.8062 15.08836248 78946,6917.892,95.438,540.961,538.553,0.0
53627.0,STARLINK-4595,PAYLOAD,2024-01-31 09:38:56,15.08841682,0.0001733,53.2175,82.8189,80.2283,279.8905,-5.0887e-05,-1.098e-05,0.0,0 STARLINK-4595,1 53627U 22104AR  24031.40204807 -.00001098  00000-0 -50887-4 0  9999,2 53627  53.2175  82.8189 0001733  80.2283 279.8905 15.08841682 79774,6917.875,95.437,540.939,538.541,0.0
53627.0,STARLINK-4595,PAYLOAD,2024-02-01 09:29:43,15.08840036,0.0001697,53.2173,78.3581,83.047,277.0715,7.884e-05,9.67e-06,0.0,0 STARLINK-4595,1 53627U 22104AR  24032.39564464  .00000967  00000-0  78840-4 0  9997,2 53627  53.2173  78.3581 0001697  83.0470 277.0715 15.08840036 79238,6917.88,95.438,540.919,538.571,0.0
53627.0,STARLINK-4595,PAYLOAD,2024-02-02 09:20:30,15.08830033,0.0001429,53.2171,73.8959,95.9738,264.1417,-6.2883e-05,-1.288e-05,0.0,0 STARLINK-4595,1 53627U 22104AR  24033.38924409 -.00001288  00000-0 -62883-4 0  9995,2 53627  53.2171  73.8959 0001429  95.9738 264.1417 15.08830033 80073,6917.911,95.438,540.764,538.787,0.0
53627.0,STARLINK-4595,PAYLOAD,2024-02-03 02:49:45,15.08888056,0.0002936,53.2166,70.6293,149.2727,210.8437,-0.00085871,-0.00013948,0.0,0 STARLINK-4595,1 53627U 22104AR  24034.11788356 -.00013948  00000-0 -85871-3 0  9993,2 53627  53.2166  70.6293 0002936 149.2727 210.8437 15.08888056 79490,6917.734,95.435,541.63,537.567,0.0
53627.0,STARLINK-4595,PAYLOAD,2024-02-03 09:11:17,15.08840676,0.0001509,53.2177,69.4405,110.8322,249.2832,-5.84e-05,-1.217e-05,0.0,0 STARLINK-4595,1 53627U 22104AR  24034.38284077 -.00001217  00000-0 -58400-4 0  9998,2 53627  53.2177  69.4405 0001509 110.8322 249.2832 15.08840676 79539,6917.878,95.438,540.787,538.699,0.0
53627.0,STARLINK-4595,PAYLOAD,2024-02-03 18:43:36,15.08839907,0.0001844,53.2173,67.6535,140.0057,220.1071,-9.2919e-05,-1.767e-05,0.0,0 STARLINK-4595,1 53627U 22104AR  24034.78028037 -.00001767  00000-0 -92919-4 0  9997,2 53627  53.2173  67.6535 0001844 140.0057 220.1071 15.08839907 80283,6917.881,95.438,541.021,538.47,0.0
53627.0,STARLINK-4595,PAYLOAD,2024-02-04 09:02:04,15.0882689,0.0001429,53.2174,64.9762,95.296,264.8195,0.00015692,2.209e-05,0.0,0 STARLINK-4595,1 53627U 22104AR  24035.37644514  .00002209  00000-0  15692-3 0  9999,2 53627  53.2174  64.9762 0001429  95.2960 264.8195 15.08826890 79680,6917.92,95.438,540.774,538.797,0.0
53627.0,STARLINK-4595,PAYLOAD,2024-02-05 12:03:38,15.08839133,0.0001459,53.2176,59.9201,93.4007,266.7152,0.00011067,1.474e-05,0.0,0 STARLINK-4595,1 53627U 22104AR  24036.50252671  .00001474  00000-0  11067-3 0  9999,2 53627  53.2176  59.9201 0001459  93.4007 266.7152 15.08839133 79856,6917.883,95.438,540.757,538.739,0.0
53627.0,STARLINK-4595,PAYLOAD,2024-02-06 00:46:44,15.08827889,0.000146,53.2177,57.5401,89.8602,270.2557,0.00018753,2.697e-05,0.0,0 STARLINK-4595,1 53627U 22104AR  24037.03245410  .00002697  00000-0  18753-3 0  9998,2 53627  53.2177  57.5401 0001460  89.8602 270.2557 15.08827889 79938,6917.917,95.438,540.792,538.772,0.0
53627.0,STARLINK-4595,PAYLOAD,2024-02-06 08:43:39,15.08841754,0.0001649,53.2179,56.0528,83.3469,276.7711,9.7317e-05,1.261e-05,0.0,0 STARLINK-4595,1 53627U 22104AR  24037.36364952  .00001261  00000-0  97317-4 0  9997,2 53627  53.2179  56.0528 0001649  83.3469 276.7711 15.08841754 79988,6917.875,95.437,540.881,538.599,0.0
53627.0,STARLINK-4595,PAYLOAD,2024-02-07 10:09:48,15.08852381,0.0001568,53.218,51.2966,78.6273,281.4895,0.00015893,2.243e-05,0.0,0 STARLINK-4595,1 53627U 22104AR  24038.42348291  .00002243  00000-0  15893-3 0  9992,2 53627  53.2180  51.2966 0001568  78.6273 281.4895 15.08852381 80147,6917.843,95.437,540.792,538.623,0.0
53627.0,STARLINK-4595,PAYLOAD,2024-02-07 18:06:45,15.08840384,0.0001366,53.2173,49.8051,103.0764,257.0381,9.4538e-05,1.217e-05,0.0,0 STARLINK-4595,1 53627U 22104AR  24038.75468876  .00001217  00000-0  94538-4 0  9994,2 53627  53.2173  49.8051 0001366 103.0764 257.0381 15.08840384 80195,6917.879,95.438,540.689,538.799,0.0
53627.0,STARLINK-4595,PAYLOAD,2024-02-08 10:00:36,15.08846469,0.0001562,53.2164,46.8334,98.1143,262.0026,0.00010925,1.451e-05,0.0,0 STARLINK-4595,1 53627U 22104AR  24039.41708749  .00001451  00000-0  10925-3 0  9991,2 53627  53.2164  46.8334 0001562  98.1143 262.0026 15.08846469 80988,6917.861,95.437,540.806,538.645,0.0
53627.0,STARLINK-4595,PAYLOAD,2024-02-09 03:29:51,15.08841089,0.0001607,53.2172,43.5633,100.7369,259.3804,-3.0689e-06,-3.37e-06,0.0,0 STARLINK-4595,1 53627U 22104AR  24040.14573185 -.00000337  00000-0 -30689-5 0  9992,2 53627  53.2172  43.5633 0001607 100.7369 259.3804 15.08841089 80406,6917.877,95.437,540.854,538.63,0.0
53627.0,STARLINK-4595,PAYLOAD,2024-02-09 06:40:37,15.08842969,0.000175,53.2173,42.9687,101.3613,258.7576,3.4569e-05,2.62e-06,0.0,0 STARLINK-4595,1 53627U 22104AR  24040.27821147  .00000262  00000-0  34569-4 0  9995,2 53627  53.2173  42.9687 0001750 101.3613 258.7576 15.08842969 81113,6917.871,95.437,540.947,538.526,0.0
53627.0,STARLINK-4595,PAYLOAD,2024-02-10 06:31:24,15.08840393,0.000159,53.2176,38.5107,97.0483,263.069,0.00010177,1.332e-05,0.0,0 STARLINK-4595,1 53627U 22104AR  24041.27181645  .00001332  00000-0  10177-3 0  9995,2 53627  53.2176  38.5107 0001590  97.0483 263.0690 15.08840393 80576,6917.879,95.438,540.844,538.644,0.0
53627.0,STARLINK-4595,PAYLOAD,2024-02-11 03:11:24,15.08861747,0.0001827,53.2183,34.6469,110.3246,249.7942,-0.00040547,-6.739e-05,0.0,0 STARLINK-4595,1 53627U 22104AR  24042.13292619 -.00006739  00000-0 -40547-3 0  9997,2 53627  53.2183  34.6469 0001827 110.3246 249.7942 15.08861747 80703,6917.814,95.436,540.943,538.415,0.0
53627.0,STARLINK-4595,PAYLOAD,2024-02-11 06:22:11,15.08855809,0.0001705,53.218,34.052,103.128,256.9902,-0.00030468,-5.136e-05,0.0,0 STARLINK-4595,1 53627U 22104AR  24042.26540824 -.00005136  00000-0 -30468-3 0  9996,2 53627  53.2180  34.0520 0001705 103.1280 256.9902 15.08855809 81412,6917.832,95.437,540.877,538.518,0.0
53627.0,STARLINK-4595,PAYLOAD,2024-02-11 22:16:04,15.08836348,0.0002177,53.2177,31.0807,73.1985,286.9246,-0.00034608,-5.792e-05,0.0,0 STARLINK-4595,1 53627U 22104AR  24042.92782715 -.00005792  00000-0 -34608-3 0  9994,2 53627  53.2177  31.0807 0002177  73.1985 286.9246 15.08836348 81517,6917.892,95.438,541.263,538.251,0.0
53627.0,STARLINK-4595,PAYLOAD,2024-02-12 03:02:14,15.08819948,0.0001625,53.218,30.1825,92.499,267.6189,-0.00015531,-2.758e-05,0.0,0 STARLINK-4595,1 53627U 22104AR  24043.12655576 -.00002758  00000-0 -15531-3 0  9994,2 53627  53.2180  30.1825 0001625  92.4990 267.6189 15.08819948 80853,6917.942,95.439,540.931,538.683,0.0
53627.0,STARLINK-4595,PAYLOAD,2024-02-12 04:37:37,15.08821095,0.0001602,53.2172,29.8846,91.2092,268.9084,-0.00013254,-2.396e-05,0.0,0 STARLINK-4595,1 53627U 22104AR  24043.19279634 -.00002396  00000-0 -13254-3 0  9996,2 53627  53.2172  29.8846 0001602  91.2092 268.9084 15.08821095 81559,6917.938,95.439,540.911,538.695,0.0
53627.0,STARLINK-4595,PAYLOAD,2024-02-13 02:53:00,15.08842945,0.0001501,53.2173,25.7203,95.8169,264.2994,0.00015285,2.146e-05,0.0,0 STARLINK-4595,1 53627U 22104AR  24044.12014597  .00002146  00000-0  15285-3 0  9992,2 53627  53.2173  25.7203 0001501  95.8169 264.2994 15.08842945 81001,6917.871,95.437,540.775,538.698,0.0
